NORAD_CAT_ID,OBJECT_NAME,OBJECT_TYPE,EPOCH,MEAN_MOTION,ECCENTRICITY,INCLINATION,RA_OF_ASC_NODE,ARG_OF_PERICENTER,MEAN_ANOMALY,BSTAR,MEAN_MOTION_DOT,MEAN_MOTION_DDOT,TLE_LINE0,TLE_LINE1,TLE_LINE2,SEMIMAJOR_AXIS,PERIOD,APOGEE,PERIGEE,DECAYED
54005.0,STARLINK-5135,PAYLOAD,2024-02-19 11:53:52,15.08839001,0.0001514,53.2188,337.1054,81.6345,278.4818,-5.4917e-05,-1.162e-05,0.0,0 STARLINK-5135,1 54005U 22125AT  24050.49574374 -.00001162  00000-0 -54917-4 0  9992,2 54005  53.2188 337.1054 0001514  81.6345 278.4818 15.08839001 76415,6917.883,95.438,540.796,538.701,0.0
54005.0,STARLINK-5135,PAYLOAD,2024-02-19 23:01:34,15.08832799,0.0001326,53.2183,335.0239,92.253,267.8614,-0.00022698,-3.898e-05,0.0,0 STARLINK-5135,1 54005U 22125AT  24050.95942893 -.00003898  00000-0 -22698-3 0  9996,2 54005  53.2183 335.0239 0001326  92.2530 267.8614 15.08832799 76432,6917.902,95.438,540.685,538.85,0.0
54005.0,STARLINK-5135,PAYLOAD,2024-02-20 11:44:39,15.08839693,0.0001678,53.2196,332.6467,91.8049,268.3135,-6.6608e-05,-1.348e-05,0.0,0 STARLINK-5135,1 54005U 22125AT  24051.48934800 -.00001348  00000-0 -66608-4 0  9992,2 54005  53.2196 332.6467 0001678  91.8049 268.3135 15.08839693 76515,6917.881,95.438,540.907,538.586,0.0
54005.0,STARLINK-5135,PAYLOAD,2024-02-20 22:52:21,15.08836857,0.0001716,53.2201,330.5645,86.6226,273.4962,0.00012193,1.653e-05,0.0,0 STARLINK-5135,1 54005U 22125AT  24051.95303177  .00001653  00000-0  12193-3 0  9997,2 54005  53.2201 330.5645 0001716  86.6226 273.4962 15.08836857 76580,6917.89,95.438,540.942,538.568,0.0
54005.0,STARLINK-5135,PAYLOAD,2024-02-21 03:38:31,15.08842744,0.0001522,53.2187,329.6719,86.3005,273.8161,8.3602e-05,1.043e-05,0.0,0 STARLINK-5135,1 54005U 22125AT  24052.15174884  .00001043  00000-0  83602-4 0  9998,2 54005  53.2187 329.6719 0001522  86.3005 273.8161 15.08842744 76667,6917.872,95.437,540.79,538.684,0.0
54005.0,STARLINK-5135,PAYLOAD,2024-02-21 22:43:09,15.08838291,0.000161,53.2193,326.1028,87.8089,272.3087,0.00018708,2.69e-05,0.0,0 STARLINK-5135,1 54005U 22125AT  24052.94663375  .00002690  00000-0  18708-3 0  9996,2 54005  53.2193 326.1028 0001610  87.8089 272.3087 15.08838291 76736,6917.886,95.438,540.864,538.637,0.0
54005.0,STARLINK-5135,PAYLOAD,2024-02-22 11:26:14,15.08839141,0.0001749,53.22,323.7211,92.7199,267.3993,8.1492e-05,1.009e-05,0.0,0 STARLINK-5135,1 54005U 22125AT  24053.47655367  .00001009  00000-0  81492-4 0  9991,2 54005  53.2200 323.7211 0001749  92.7199 267.3993 15.08839141 76861,6917.883,95.438,540.958,538.538,0.0
54005.0,STARLINK-5135,PAYLOAD,2024-02-22 22:33:55,15.08842904,0.000177,53.2193,321.6415,88.776,271.3435,0.0001152,1.546e-05,0.0,0 STARLINK-5135,1 54005U 22125AT  24053.94023107  .00001546  00000-0  11520-3 0  9994,2 54005  53.2193 321.6415 0001770  88.7760 271.3435 15.08842904 76887,6917.872,95.437,540.961,538.512,0.0
54005.0,STARLINK-5135,PAYLOAD,2024-02-23 11:17:00,15.08847212,0.0001561,53.2186,319.2654,82.1579,277.959,0.00015061,2.11e-05,0.0,0 STARLINK-5135,1 54005U 22125AT  24054.47014933  .00002110  00000-0  15061-3 0  9992,2 54005  53.2186 319.2654 0001561  82.1579 277.9590 15.08847212 76961,6917.858,95.437,540.803,538.643,0.0
54005.0,STARLINK-5135,PAYLOAD,2024-02-23 20:49:19,15.08846267,0.00016,53.2201,317.4795,90.265,269.8525,4.0281e-05,3.53e-06,0.0,0 STARLINK-5135,1 54005U 22125AT  24054.86758964  .00000353  00000-0  40281-4 0  9994,2 54005  53.2201 317.4795 0001600  90.2650 269.8525 15.08846267 77079,6917.861,95.437,540.833,538.619,0.0
54005.0,STARLINK-5135,PAYLOAD,2024-02-23 22:24:42,15.08845089,0.0001548,53.2187,317.1833,96.0497,264.0671,4.2524e-05,3.89e-06,0.0,0 STARLINK-5135,1 54005U 22125AT  24054.93382969  .00000389  00000-0  42524-4 0  9991,2 54005  53.2187 317.1833 0001548  96.0497 264.0671 15.08845089 77032,6917.865,95.437,540.801,538.659,0.0
54005.0,STARLINK-5135,PAYLOAD,2024-02-24 03:10:52,15.08847816,0.0001516,53.2187,316.2881,106.2405,253.8754,0.00016825,2.391e-05,0.0,0 STARLINK-5135,1 54005U 22125AT  24055.13254687  .00002391  00000-0  16825-3 0  9998,2 54005  53.2187 316.2881 0001516 106.2405 253.8754 15.08847816 77064,6917.856,95.437,540.77,538.673,0.0
54005.0,STARLINK-5135,PAYLOAD,2024-02-25 03:01:40,15.08832493,0.0001164,53.2192,311.8308,86.6727,273.4399,-2.7199e-05,-7.21e-06,0.0,0 STARLINK-5135,1 54005U 22125AT  24056.12615882 -.00000721  00000-0 -27199-4 0  9990,2 54005  53.2192 311.8308 0001164  86.6727 273.4399 15.08832493 77262,6917.903,95.438,540.574,538.963,0.0
54005.0,STARLINK-5135,PAYLOAD,2024-02-25 20:30:54,15.08844058,0.0001105,53.218,308.5604,85.3795,274.7323,0.00018388,2.64e-05,0.0,0 STARLINK-5135,1 54005U 22125AT  24056.85479497  .00002640  00000-0  18388-3 0  9999,2 54005  53.2180 308.5604 0001105  85.3795 274.7323 15.08844058 77370,6917.868,95.437,540.497,538.969,0.0
54005.0,STARLINK-5135,PAYLOAD,2024-02-25 22:06:17,15.08848142,0.0001297,53.2177,308.2629,94.5228,265.5912,0.00025092,3.709e-05,0.0,0 STARLINK-5135,1 54005U 22125AT  24056.92103341  .00003709  00000-0  25092-3 0  9996,2 54005  53.2177 308.2629 0001297  94.5228 265.5912 15.08848142 77331,6917.856,95.437,540.618,538.823,0.0
54005.0,STARLINK-5135,PAYLOAD,2024-02-25 23:41:40,15.08850861,9.82e-05,53.2168,307.9663,97.8017,262.3087,0.00038425,5.835e-05,0.0,0 STARLINK-5135,1 54005U 22125AT  24056.98727254  .00005835  00000-0  38425-3 0  9993,2 54005  53.2168 307.9663 0000982  97.8017 262.3087 15.08850861 77347,6917.847,95.437,540.392,539.033,0.0
54005.0,STARLINK-5135,PAYLOAD,2024-02-26 21:57:04,15.08842368,0.000116,53.2171,303.8018,92.207,267.9055,7.7995e-05,9.54e-06,0.0,0 STARLINK-5135,1 54005U 22125AT  24057.91463602  .00000954  00000-0  77995-4 0  9994,2 54005  53.2171 303.8018 0001160  92.2070 267.9055 15.08842368 77481,6917.873,95.437,540.541,538.936,0.0
54005.0,STARLINK-5135,PAYLOAD,2024-02-27 01:07:50,15.08842277,0.0001142,53.2171,303.207,92.38,267.7322,9.2244e-05,1.181e-05,0.0,0 STARLINK-5135,1 54005U 22125AT  24058.04711642  .00001181  00000-0  92244-4 0  9996,2 54005  53.2171 303.2070 0001142  92.3800 267.7322 15.08842277 77557,6917.873,95.437,540.528,538.948,0.0
54005.0,STARLINK-5135,PAYLOAD,2024-02-27 09:04:46,15.08837155,0.0001131,53.2171,301.7197,87.836,272.2762,-1.8706e-05,-5.85e-06,0.0,0 STARLINK-5135,1 54005U 22125AT  24058.37831846 -.00000585  00000-0 -18706-4 0  9991,2 54005  53.2171 301.7197 0001131  87.8360 272.2762 15.08837155 77556,6917.889,95.438,540.536,538.972,0.0
54005.0,STARLINK-5135,PAYLOAD,2024-02-27 21:47:51,15.08841237,0.0001138,53.2175,299.3419,89.2804,270.8318,-7.9981e-05,-1.561e-05,0.0,0 STARLINK-5135,1 54005U 22125AT  24058.90823868 -.00001561  00000-0 -79981-4 0  9992,2 54005  53.2175 299.3419 0001138  89.2804 270.8318 15.08841237 77631,6917.877,95.437,540.529,538.954,0.0
54005.0,STARLINK-5135,PAYLOAD,2024-02-28 02:34:01,15.08843662,0.0001171,53.2169,298.4483,91.6969,268.4157,3.311e-05,2.39e-06,0.0,0 STARLINK-5135,1 54005U 22125AT  24059.10695727  .00000239  00000-0  33110-4 0  9999,2 54005  53.2169 298.4483 0001171  91.6969 268.4157 15.08843662 77718,6917.869,95.437,540.544,538.924,0.0
54005.0,STARLINK-5135,PAYLOAD,2024-02-28 08:55:33,15.08845077,0.000117,53.2171,297.2598,90.7738,269.3388,-2.8673e-05,-7.44e-06,0.0,0 STARLINK-5135,1 54005U 22125AT  24059.37191611 -.00000744  00000-0 -28673-4 0  9992,2 54005  53.2171 297.2598 0001170  90.7738 269.3388 15.08845077 77705,6917.865,95.437,540.539,538.92,0.0
54005.0,STARLINK-5135,PAYLOAD,2024-02-28 21:38:38,15.08842821,0.000127,53.2172,294.8795,87.8425,272.2712,0.00016993,2.418e-05,0.0,0 STARLINK-5135,1 54005U 22125AT  24059.90183833  .00002418  00000-0  16993-3 0  9997,2 54005  53.2172 294.8795 0001270  87.8425 272.2712 15.08842821 77785,6917.872,95.437,540.615,538.858,0.0
54005.0,STARLINK-5135,PAYLOAD,2024-02-29 08:46:20,15.08839674,0.0001306,53.2182,292.796,81.9318,278.1822,0.00010188,1.334e-05,0.0,0 STARLINK-5135,1 54005U 22125AT  24060.36552038  .00001334  00000-0  10188-3 0  9992,2 54005  53.2182 292.7960 0001306  81.9318 278.1822 15.08839674 77906,6917.881,95.438,540.65,538.843,0.0
54005.0,STARLINK-5135,PAYLOAD,2024-02-29 21:29:26,15.08841345,0.0001275,53.2168,290.4181,88.5819,271.5319,6.7395e-05,7.85e-06,0.0,0 STARLINK-5135,1 54005U 22125AT  24060.89544017  .00000785  00000-0  67395-4 0  9990,2 54005  53.2168 290.4181 0001275  88.5819 271.5319 15.08841345 77933,6917.876,95.437,540.623,538.859,0.0
54005.0,STARLINK-5135,PAYLOAD,2024-03-01 08:37:07,15.08842855,0.0001363,53.217,288.3371,87.3252,272.7896,9.6927e-05,1.255e-05,0.0,0 STARLINK-5135,1 54005U 22125AT  24061.35912023  .00001255  00000-0  96927-4 0  9994,2 54005  53.2170 288.3371 0001363  87.3252 272.7896 15.08842855 78008,6917.872,95.437,540.68,538.794,0.0
54005.0,STARLINK-5135,PAYLOAD,2024-03-01 19:44:49,15.08844718,0.0001382,53.217,286.2553,87.7286,272.3864,0.00010905,1.448e-05,0.0,0 STARLINK-5135,1 54005U 22125AT  24061.82279904  .00001448  00000-0  10905-3 0  9995,2 54005  53.2170 286.2553 0001382  87.7286 272.3864 15.08844718 78123,6917.866,95.437,540.687,538.775,0.0
54005.0,STARLINK-5135,PAYLOAD,2024-03-01 21:20:12,15.08846161,0.0001386,53.2172,285.958,103.8952,256.2194,9.2503e-05,1.185e-05,0.0,0 STARLINK-5135,1 54005U 22125AT  24061.88903766  .00001185  00000-0  92503-4 0  9994,2 54005  53.2172 285.9580 0001386 103.8952 256.2194 15.08846161 78081,6917.862,95.437,540.685,538.768,0.0
54005.0,STARLINK-5135,PAYLOAD,2024-03-02 19:35:35,15.08861074,0.0001343,53.2169,281.7944,90.0274,270.0872,0.00034958,5.283e-05,0.0,0 STARLINK-5135,1 54005U 22125AT  24062.81638571  .00005283  00000-0  34958-3 0  9999,2 54005  53.2169 281.7944 0001343  90.0274 270.0872 15.08861074 78270,6917.816,95.436,540.61,538.752,0.0
54005.0,STARLINK-5135,PAYLOAD,2024-03-02 21:10:58,15.08870859,0.0001079,53.2164,281.4984,69.9619,290.1489,0.0004467,6.834e-05,0.0,0 STARLINK-5135,1 54005U 22125AT  24062.88262088  .00006834  00000-0  44670-3 0  9997,2 54005  53.2164 281.4984 0001079  69.9619 290.1489 15.08870859 78234,6917.786,95.436,540.397,538.905,0.0
